SOYUZ-MS 28             
1 66664U 25275A   26003.79081788  .00013445  00000+0  25095-3 0  9998
2 66664  51.6327  33.2893 0007553 337.0786  22.9864 15.49074434546272
1998-067XS              
1 66906U 98067XS  26003.56914344  .00032069  00000+0  53068-3 0  9998
2 66906  51.6318  34.0602 0002449 317.8202  42.2599 15.51896451  5001
1998-067XT              
1 66907U 98067XT  26004.12103799  .00095681  00000+0  14009-2 0  9996
2 66907  51.6312  30.9960 0003988   3.7233 356.3787 15.54786954  5098
1998-067XU              
1 66908U 98067XU  26004.11997838  .00098091  00000+0  14368-2 0  9997
2 66908  51.6307  30.9882 0003938   0.6462 359.4534 15.54763507  5094
SILVERSAT               
1 66909U 98067XV  26004.11572593  .00104009  00000+0  14929-2 0  9995
2 66909  51.6309  30.9602 0004073   8.7546 351.3516 15.55288263  5093
1998-067XW              
1 66910U 98067XW  26003.79377596  .00097439  00000+0  14161-2 0  9992
2 66910  51.6304  32.5594 0003207 339.7349  20.3515 15.54983306  5040
1998-067XX              
1 66911U 98067XX  26004.04258597  .00113170  00000+0  15859-2 0  9997
2 66911  51.6310  31.2218 0003118 355.5452   4.5511 15.55900186  5078
1998-067XY              
1 66912U 98067XY  26004.06679446  .00074363  00000+0  11363-2 0  9996
2 66912  51.6316  31.3838 0003821 350.5319   9.5599 15.53728107  5072
