CCSDS_OMM_VERS = 2.0
CREATION_DATE  = 
ORIGINATOR     = 

OBJECT_NAME    = SOYUZ-MS 28
OBJECT_ID      = 2025-275A
CENTER_NAME    = EARTH
REF_FRAME      = TEME
TIME_SYSTEM    = UTC
MEAN_ELEMENT_THEORY = SGP/SGP4

EPOCH          = 2026-01-03T18:58:46.664832
MEAN_MOTION    = 15.49074434
ECCENTRICITY   = .0007553
INCLINATION    = 51.6327
RA_OF_ASC_NODE = 33.2893
ARG_OF_PERICENTER = 337.0786
MEAN_ANOMALY   = 22.9864

EPHEMERIS_TYPE = 0
CLASSIFICATION_TYPE = U
NORAD_CAT_ID   = 66664
ELEMENT_SET_NO = 999
REV_AT_EPOCH   = 54627
BSTAR          = .25095E-3
MEAN_MOTION_DOT = .13445E-3
MEAN_MOTION_DDOT = 0

CCSDS_OMM_VERS = 2.0
CREATION_DATE  = 
ORIGINATOR     = 

OBJECT_NAME    = 1998-067XS
OBJECT_ID      = 1998-067XS
CENTER_NAME    = EARTH
REF_FRAME      = TEME
TIME_SYSTEM    = UTC
MEAN_ELEMENT_THEORY = SGP/SGP4

EPOCH          = 2026-01-03T13:39:33.993216
MEAN_MOTION    = 15.51896451
ECCENTRICITY   = .00024495
INCLINATION    = 51.6318
RA_OF_ASC_NODE = 34.0602
ARG_OF_PERICENTER = 317.8202
MEAN_ANOMALY   = 42.2599

EPHEMERIS_TYPE = 0
CLASSIFICATION_TYPE = U
NORAD_CAT_ID   = 66906
ELEMENT_SET_NO = 999
REV_AT_EPOCH   = 500
BSTAR          = .53068036E-3
MEAN_MOTION_DOT = .32069E-3
MEAN_MOTION_DDOT = 0

CCSDS_OMM_VERS = 2.0
CREATION_DATE  = 
ORIGINATOR     = 

OBJECT_NAME    = 1998-067XT
OBJECT_ID      = 1998-067XT
CENTER_NAME    = EARTH
REF_FRAME      = TEME
TIME_SYSTEM    = UTC
MEAN_ELEMENT_THEORY = SGP/SGP4

EPOCH          = 2026-01-04T02:54:17.682336
MEAN_MOTION    = 15.54786954
ECCENTRICITY   = .0003988
INCLINATION    = 51.6312
RA_OF_ASC_NODE = 30.9960
ARG_OF_PERICENTER = 3.7233
MEAN_ANOMALY   = 356.3787

EPHEMERIS_TYPE = 0
CLASSIFICATION_TYPE = U
NORAD_CAT_ID   = 66907
ELEMENT_SET_NO = 999
REV_AT_EPOCH   = 509
BSTAR          = .14009E-2
MEAN_MOTION_DOT = .95681E-3
MEAN_MOTION_DDOT = 0

CCSDS_OMM_VERS = 2.0
CREATION_DATE  = 
ORIGINATOR     = 

OBJECT_NAME    = 1998-067XU
OBJECT_ID      = 1998-067XU
CENTER_NAME    = EARTH
REF_FRAME      = TEME
TIME_SYSTEM    = UTC
MEAN_ELEMENT_THEORY = SGP/SGP4

EPOCH          = 2026-01-04T02:52:46.132032
MEAN_MOTION    = 15.54763507
ECCENTRICITY   = .0003938
INCLINATION    = 51.6307
RA_OF_ASC_NODE = 30.9882
ARG_OF_PERICENTER = 0.6462
MEAN_ANOMALY   = 359.4534

EPHEMERIS_TYPE = 0
CLASSIFICATION_TYPE = U
NORAD_CAT_ID   = 66908
ELEMENT_SET_NO = 999
REV_AT_EPOCH   = 509
BSTAR          = .14368E-2
MEAN_MOTION_DOT = .98091E-3
MEAN_MOTION_DDOT = 0

CCSDS_OMM_VERS = 2.0
CREATION_DATE  = 
ORIGINATOR     = 

OBJECT_NAME    = SILVERSAT
OBJECT_ID      = 1998-067XV
CENTER_NAME    = EARTH
REF_FRAME      = TEME
TIME_SYSTEM    = UTC
MEAN_ELEMENT_THEORY = SGP/SGP4

EPOCH          = 2026-01-04T02:46:38.720352
MEAN_MOTION    = 15.55288263
ECCENTRICITY   = .0004073
INCLINATION    = 51.6309
RA_OF_ASC_NODE = 30.9602
ARG_OF_PERICENTER = 8.7546
MEAN_ANOMALY   = 351.3516

EPHEMERIS_TYPE = 0
CLASSIFICATION_TYPE = U
NORAD_CAT_ID   = 66909
ELEMENT_SET_NO = 999
REV_AT_EPOCH   = 509
BSTAR          = .14929E-2
MEAN_MOTION_DOT = .104009E-2
MEAN_MOTION_DDOT = 0

CCSDS_OMM_VERS = 2.0
CREATION_DATE  = 
ORIGINATOR     = 

OBJECT_NAME    = 1998-067XW
OBJECT_ID      = 1998-067XW
CENTER_NAME    = EARTH
REF_FRAME      = TEME
TIME_SYSTEM    = UTC
MEAN_ELEMENT_THEORY = SGP/SGP4

EPOCH          = 2026-01-03T19:03:02.242944
MEAN_MOTION    = 15.54983306
ECCENTRICITY   = .00032071
INCLINATION    = 51.6304
RA_OF_ASC_NODE = 32.5594
ARG_OF_PERICENTER = 339.7349
MEAN_ANOMALY   = 20.3515

EPHEMERIS_TYPE = 0
CLASSIFICATION_TYPE = U
NORAD_CAT_ID   = 66910
ELEMENT_SET_NO = 999
REV_AT_EPOCH   = 504
BSTAR          = .14160661E-2
MEAN_MOTION_DOT = .97439E-3
MEAN_MOTION_DDOT = 0

CCSDS_OMM_VERS = 2.0
CREATION_DATE  = 
ORIGINATOR     = 

OBJECT_NAME    = 1998-067XX
OBJECT_ID      = 1998-067XX
CENTER_NAME    = EARTH
REF_FRAME      = TEME
TIME_SYSTEM    = UTC
MEAN_ELEMENT_THEORY = SGP/SGP4

EPOCH          = 2026-01-04T01:01:19.427808
MEAN_MOTION    = 15.55900186
ECCENTRICITY   = .0003118
INCLINATION    = 51.6310
RA_OF_ASC_NODE = 31.2218
ARG_OF_PERICENTER = 355.5452
MEAN_ANOMALY   = 4.5511

EPHEMERIS_TYPE = 0
CLASSIFICATION_TYPE = U
NORAD_CAT_ID   = 66911
ELEMENT_SET_NO = 999
REV_AT_EPOCH   = 507
BSTAR          = .15859E-2
MEAN_MOTION_DOT = .11317E-2
MEAN_MOTION_DDOT = 0

CCSDS_OMM_VERS = 2.0
CREATION_DATE  = 
ORIGINATOR     = 

OBJECT_NAME    = 1998-067XY
OBJECT_ID      = 1998-067XY
CENTER_NAME    = EARTH
REF_FRAME      = TEME
TIME_SYSTEM    = UTC
MEAN_ELEMENT_THEORY = SGP/SGP4

EPOCH          = 2026-01-04T01:36:11.041344
MEAN_MOTION    = 15.53728107
ECCENTRICITY   = .0003821
INCLINATION    = 51.6316
RA_OF_ASC_NODE = 31.3838
ARG_OF_PERICENTER = 350.5319
MEAN_ANOMALY   = 9.5599

EPHEMERIS_TYPE = 0
CLASSIFICATION_TYPE = U
NORAD_CAT_ID   = 66912
ELEMENT_SET_NO = 999
REV_AT_EPOCH   = 507
BSTAR          = .11363E-2
MEAN_MOTION_DOT = .74363E-3
MEAN_MOTION_DDOT = 0

